{"type": "FeatureCollection", "features": [ {"type": "Feature", "properties": {"norad_id": 31092, "name": "FENGYUN 1C DEB", "group": "fengyun-1c-debris", "lat": -55.20141351075056, "lon": 107.1222515430909, "alt_km": 1282.4534159041386, "timestamp": "2025-12-02T17:49:12.308478+00:00", "meta": {"OBJECT_NAME": "FENGYUN 1C DEB", "OBJECT_ID": "1999-025BGN", "EPOCH": "2025-11-15T07:00:52.552224", "MEAN_MOTION": 13.46401433, "ECCENTRICITY": 0.03278725, "INCLINATION": 99.7115, "RA_OF_ASC_NODE": 75.9227, "ARG_OF_PERICENTER": 204.4209, "MEAN_ANOMALY": 154.1084, "EPHEMERIS_TYPE": 0, "CLASSIFICATION_TYPE": "U", "NORAD_CAT_ID": 31092, "ELEMENT_SET_NO": 999, "REV_AT_EPOCH": 91512, "BSTAR": 0.0042000132, "MEAN_MOTION_DOT": 3.457e-05, "MEAN_MOTION_DDOT": 0}, "tle": {"line1": "1 31092U 99025BGN 25319.29227491  .00003457  00000+0  42000-2 0  9992", "line2": "2 31092  99.7115  75.9227 0327872 204.4209 154.1084 13.46401433915121"}}, "geometry": {"type": "Point", "coordinates": [107.1222515430909, -55.20141351075056]}}, {"type": "Feature", "properties": {"norad_id": 31093, "name": "FENGYUN 1C DEB", "group": "fengyun-1c-debris", "lat": -46.25038951605761, "lon": -174.27655680617, "alt_km": 896.040351731086, "timestamp": "2025-12-02T17:49:12.308488+00:00", "meta": {"OBJECT_NAME": "FENGYUN 1C DEB", "OBJECT_ID": "1999-025BGP", "EPOCH": "2025-12-02T07:36:37.324224", "MEAN_MOTION": 13.80614171, "ECCENTRICITY": 0.0208174, "INCLINATION": 98.5951, "RA_OF_ASC_NODE": 176.2459, "ARG_OF_PERICENTER": 251.5129, "MEAN_ANOMALY": 106.3302, "EPHEMERIS_TYPE": 0, "CLASSIFICATION_TYPE": "U", "NORAD_CAT_ID": 31093, "ELEMENT_SET_NO": 999, "REV_AT_EPOCH": 94363, "BSTAR": 0.00056685, "MEAN_MOTION_DOT": 6.6e-06, "MEAN_MOTION_DDOT": 0}, "tle": {"line1": "1 31093U 99025BGP 25336.31709866  .00000660  00000+0  56685-3 0  9994", "line2": "2 31093  98.5951 176.2459 0208174 251.5129 106.3302 13.80614171943638"}}, "geometry": {"type": "Point", "coordinates": [-174.27655680617, -46.25038951605761]}}, {"type": "Feature", "properties": {"norad_id": 31094, "name": "FENGYUN 1C DEB", "group": "fengyun-1c-debris", "lat": 25.251883710726048, "lon": -159.3385594868826, "alt_km": 834.8295746837512, "timestamp": "2025-12-02T17:49:12.308498+00:00", "meta": {"OBJECT_NAME": "FENGYUN 1C DEB", "OBJECT_ID": "1999-025BGQ", "EPOCH": "2025-12-02T09:08:08.263680", "MEAN_MOTION": 14.01972489, "ECCENTRICITY": 0.0106385, "INCLINATION": 98.8573, "RA_OF_ASC_NODE": 204.5277, "ARG_OF_PERICENTER": 75.5887, "MEAN_ANOMALY": 285.7058, "EPHEMERIS_TYPE": 0, "CLASSIFICATION_TYPE": "U", "NORAD_CAT_ID": 31094, "ELEMENT_SET_NO": 999, "REV_AT_EPOCH": 95474, "BSTAR": 0.0017271, "MEAN_MOTION_DOT": 2.725e-05, "MEAN_MOTION_DDOT": 0}, "tle": {"line1": "1 31094U 99025BGQ 25336.38065120  .00002725  00000+0  17271-2 0  9991", "line2": "2 31094  98.8573 204.5277 0106385  75.5887 285.7058 14.01972489954748"}}, "geometry": {"type": "Point", "coordinates": [-159.3385594868826, 25.251883710726048]}}, {"type": "Feature", "properties": {"norad_id": 31095, "name": "FENGYUN 1C DEB", "group": "fengyun-1c-debris", "lat": -47.32028082362198, "lon": 130.57702800068924, "alt_km": 1265.454507640443, "timestamp": "2025-12-02T17:49:12.308509+00:00", "meta": {"OBJECT_NAME": "FENGYUN 1C DEB", "OBJECT_ID": "1999-025BGR", "EPOCH": "2025-12-01T03:29:02.954112", "MEAN_MOTION": 13.06659959, "ECCENTRICITY": 0.04997166, "INCLINATION": 98.5614, "RA_OF_ASC_NODE": 119.8961, "ARG_OF_PERICENTER": 219.6106, "MEAN_ANOMALY": 136.7486, "EPHEMERIS_TYPE": 0, "CLASSIFICATION_TYPE": "U", "NORAD_CAT_ID": 31095, "ELEMENT_SET_NO": 999, "REV_AT_EPOCH": 89296, "BSTAR": 0.00037473476, "MEAN_MOTION_DOT": 1.94e-06, "MEAN_MOTION_DDOT": 0}, "tle": {"line1": "1 31095U 99025BGR 25335.14517308  .00000194  00000+0  37473-3 0  9990", "line2": "2 31095  98.5614 119.8961 0499716 219.6106 136.7486 13.06659959892961"}}, "geometry": {"type": "Point", "coordinates": [130.57702800068924, -47.32028082362198]}}, {"type": "Feature", "properties": {"norad_id": 31097, "name": "FENGYUN 1C DEB", "group": "fengyun-1c-debris", "lat": -74.87307865753193, "lon": -116.18103534897013, "alt_km": 736.259799379065, "timestamp": "2025-12-02T17:49:12.308519+00:00", "meta": {"OBJECT_NAME": "FENGYUN 1C DEB", "OBJECT_ID": "1999-025BGT", "EPOCH": "2025-12-01T07:41:11.971680", "MEAN_MOTION": 14.46625294, "ECCENTRICITY": 0.00143641, "INCLINATION": 98.8599, "RA_OF_ASC_NODE": 97.5731, "ARG_OF_PERICENTER": 303.8592, "MEAN_ANOMALY": 111.3458, "EPHEMERIS_TYPE": 0, "CLASSIFICATION_TYPE": "U", "NORAD_CAT_ID": 31097, "ELEMENT_SET_NO": 999, "REV_AT_EPOCH": 96873, "BSTAR": 0.0033518481, "MEAN_MOTION_DOT": 0.00012084, "MEAN_MOTION_DDOT": 0}, "tle": {"line1": "1 31097U 99025BGT 25335.32027745  .00012084  00000+0  33518-2 0  9999", "line2": "2 31097  98.8599  97.5731 0014364 303.8592 111.3458 14.46625294968739"}}, "geometry": {"type": "Point", "coordinates": [-116.18103534897013, -74.87307865753193]}}, {"type": "Feature", "properties": {"norad_id": 31098, "name": "FENGYUN 1C DEB", "group": "fengyun-1c-debris", "lat": -35.11099916127663, "lon": 100.450247299631, "alt_km": 721.6378013193598, "timestamp": "2025-12-02T17:49:12.308529+00:00", "meta": {"OBJECT_NAME": "FENGYUN 1C DEB", "OBJECT_ID": "1999-025BGU", "EPOCH": "2025-12-02T06:23:57.797088", "MEAN_MOTION": 14.51076062, "ECCENTRICITY": 0.0013986, "INCLINATION": 98.8699, "RA_OF_ASC_NODE": 93.6452, "ARG_OF_PERICENTER": 278.151, "MEAN_ANOMALY": 81.8096, "EPHEMERIS_TYPE": 0, "CLASSIFICATION_TYPE": "U", "NORAD_CAT_ID": 31098, "ELEMENT_SET_NO": 999, "REV_AT_EPOCH": 96805, "BSTAR": 0.0039258, "MEAN_MOTION_DOT": 0.00015556, "MEAN_MOTION_DDOT": 0}, "tle": {"line1": "1 31098U 99025BGU 25336.26664117  .00015556  00000+0  39258-2 0  9998", "line2": "2 31098  98.8699  93.6452 0013986 278.1510  81.8096 14.51076062968054"}}, "geometry": {"type": "Point", "coordinates": [100.450247299631, -35.11099916127663]}}, {"type": "Feature", "properties": {"norad_id": 31099, "name": "FENGYUN 1C DEB", "group": "fengyun-1c-debris", "lat": -80.90471096941451, "lon": -51.59645165612607, "alt_km": 770.8783077273429, "timestamp": "2025-12-02T17:49:12.308540+00:00", "meta": {"OBJECT_NAME": "FENGYUN 1C DEB", "OBJECT_ID": "1999-025BGV", "EPOCH": "2025-12-01T15:36:09.260352", "MEAN_MOTION": 14.27891635, "ECCENTRICITY": 0.00630641, "INCLINATION": 98.9374, "RA_OF_ASC_NODE": 227.8712, "ARG_OF_PERICENTER": 313.9725, "MEAN_ANOMALY": 105.9469, "EPHEMERIS_TYPE": 0, "CLASSIFICATION_TYPE": "U", "NORAD_CAT_ID": 31099, "ELEMENT_SET_NO": 999, "REV_AT_EPOCH": 97313, "BSTAR": 0.00035336263, "MEAN_MOTION_DOT": 8.46e-06, "MEAN_MOTION_DDOT": 0}, "tle": {"line1": "1 31099U 99025BGV 25335.65010718  .00000846  00000+0  35336-3 0  9993", "line2": "2 31099  98.9374 227.8712 0063064 313.9725 105.9469 14.27891635973135"}}, "geometry": {"type": "Point", "coordinates": [-51.59645165612607, -80.90471096941451]}}, {"type": "Feature", "properties": {"norad_id": 31146, "name": "FENGYUN 1C DEB", "group": "fengyun-1c-debris", "lat": 41.70251241442001, "lon": 95.31107570888626, "alt_km": 714.0615374670633, "timestamp": "2025-12-02T17:49:12.308550+00:00", "meta": {"OBJECT_NAME": "FENGYUN 1C DEB", "OBJECT_ID": "1999-025BGY", "EPOCH": "2025-11-30T18:04:03.562464", "MEAN_MOTION": 14.27661825, "ECCENTRICITY": 0.0212084, "INCLINATION": 99.04, "RA_OF_ASC_NODE": 265.0967, "ARG_OF_PERICENTER": 201.7318, "MEAN_ANOMALY": 157.4762, "EPHEMERIS_TYPE": 0, "CLASSIFICATION_TYPE": "U", "NORAD_CAT_ID": 31146, "ELEMENT_SET_NO": 999, "REV_AT_EPOCH": 96594, "BSTAR": 0.00039299299, "MEAN_MOTION_DOT": 1.178e-05, "MEAN_MOTION_DDOT": 0}, "tle": {"line1": "1 31146U 99025BGY 25334.75281901  .00001178  00000+0  39299-3 0  9991", "line2": "2 31146  99.0400 265.0967 0212084 201.7318 157.4762 14.27661825965940"}}, "geometry": {"type": "Point", "coordinates": [95.31107570888626, 41.70251241442001]}}, {"type": "Feature", "properties": {"norad_id": 31148, "name": "FENGYUN 1C DEB", "group": "fengyun-1c-debris", "lat": 70.37620023238215, "lon": 67.86213463175164, "alt_km": 654.2448388230814, "timestamp": "2025-12-02T17:49:12.308561+00:00", "meta": {"OBJECT_NAME": "FENGYUN 1C DEB", "OBJECT_ID": "1999-025BHA", "EPOCH": "2025-12-01T09:43:14.615328", "MEAN_MOTION": 14.43252139, "ECCENTRICITY": 0.01364315, "INCLINATION": 98.8662, "RA_OF_ASC_NODE": 220.5077, "ARG_OF_PERICENTER": 84.1951, "MEAN_ANOMALY": 277.4773, "EPHEMERIS_TYPE": 0, "CLASSIFICATION_TYPE": "U", "NORAD_CAT_ID": 31148, "ELEMENT_SET_NO": 999, "REV_AT_EPOCH": 97367, "BSTAR": 0.00092433394, "MEAN_MOTION_DOT": 3.432e-05, "MEAN_MOTION_DDOT": 0}, "tle": {"line1": "1 31148U 99025BHA 25335.40503027  .00003432  00000+0  92433-3 0  9996", "line2": "2 31148  98.8662 220.5077 0136431  84.1951 277.4773 14.43252139973670"}}, "geometry": {"type": "Point", "coordinates": [67.86213463175164, 70.37620023238215]}}, {"type": "Feature", "properties": {"norad_id": 31150, "name": "FENGYUN 1C DEB", "group": "fengyun-1c-debris", "lat": -57.52075845875693, "lon": 151.80534221196544, "alt_km": 850.3635042345268, "timestamp": "2025-12-02T17:49:12.308572+00:00", "meta": {"OBJECT_NAME": "FENGYUN 1C DEB", "OBJECT_ID": "1999-025BHC", "EPOCH": "2025-12-02T12:18:49.906368", "MEAN_MOTION": 14.12723742, "ECCENTRICITY": 0.0014767, "INCLINATION": 98.6862, "RA_OF_ASC_NODE": 345.4784, "ARG_OF_PERICENTER": 188.364, "MEAN_ANOMALY": 323.858, "EPHEMERIS_TYPE": 0, "CLASSIFICATION_TYPE": "U", "NORAD_CAT_ID": 31150, "ELEMENT_SET_NO": 999, "REV_AT_EPOCH": 96152, "BSTAR": 0.00020456, "MEAN_MOTION_DOT": 3.37e-06, "MEAN_MOTION_DDOT": 0}, "tle": {"line1": "1 31150U 99025BHC 25336.51307762  .00000337  00000+0  20456-3 0  9997", "line2": "2 31150  98.6862 345.4784 0014767 188.3640 323.8580 14.12723742961526"}}, "geometry": {"type": "Point", "coordinates": [151.80534221196544, -57.52075845875693]}}]}